$$SOE
2460147.500000000, A.D. 2023-Jul-22 00:00:00.0000, 2.213672982162787E+08, 1.536490293744625E+08, 9.655575605361253E+06,
2460154.500000000, A.D. 2023-Jul-29 00:00:00.0000, 2.127683860638202E+08, 1.655135411294520E+08, 1.015732570151166E+07,
2460161.500000000, A.D. 2023-Aug-05 00:00:00.0000, 2.036435656915427E+08, 1.769689453502983E+08, 1.063395622467297E+07,
2460168.500000000, A.D. 2023-Aug-12 00:00:00.0000, 1.940167675244803E+08, 1.879881231790763E+08, 1.108436134596542E+07,
2460175.500000000, A.D. 2023-Aug-19 00:00:00.0000, 1.839137063482729E+08, 1.985458359578694E+08, 1.150754470447035E+07,
2460182.500000000, A.D. 2023-Aug-26 00:00:00.0000, 1.733616848631101E+08, 2.086188690426834E+08, 1.190262460723931E+07,
2460189.500000000, A.D. 2023-Sep-02 00:00:00.0000, 1.623893835787113E+08, 2.181861496058596E+08, 1.226883781836368E+07,
2460196.500000000, A.D. 2023-Sep-09 00:00:00.0000, 1.510266411663058E+08, 2.272288371083165E+08, 1.260554190686581E+07,
2460203.500000000, A.D. 2023-Sep-16 00:00:00.0000, 1.393042295902776E+08, 2.357303858377625E+08, 1.291221614664622E+07,
2460210.500000000, A.D. 2023-Sep-23 00:00:00.0000, 1.272536285245309E+08, 2.436765799703932E+08, 1.318846100198779E+07,
2460217.500000000, A.D. 2023-Sep-30 00:00:00.0000, 1.149068026117614E+08, 2.510555431798378E+08, 1.343399640515330E+07,
2460224.500000000, A.D. 2023-Oct-07 00:00:00.0000, 1.022959827883902E+08, 2.578577236528558E+08, 1.364865910004577E+07,
2460231.500000000, A.D. 2023-Oct-14 00:00:00.0000, 8.945345587422729E+07, 2.640758531181821E+08, 1.383239881286812E+07,
2460238.500000000, A.D. 2023-Oct-21 00:00:00.0000, 7.641136838100922E+07, 2.697048838240501E+08, 1.398527322517768E+07,
2460245.500000000, A.D. 2023-Oct-28 00:00:00.0000, 6.320154533103570E+07, 2.747419082984583E+08, 1.410744220828266E+07,
2460252.500000000, A.D. 2023-Nov-04 00:00:00.0000, 4.985532449916462E+07, 2.791860638590097E+08, 1.419916151856576E+07,
2460259.500000000, A.D. 2023-Nov-11 00:00:00.0000, 3.640340738822846E+07, 2.830384241016608E+08, 1.426077603889979E+07,
2460266.500000000, A.D. 2023-Nov-18 00:00:00.0000, 2.287572780092239E+07, 2.863018801433510E+08, 1.429271269029008E+07,
2460273.500000000, A.D. 2023-Nov-25 00:00:00.0000, 9.301338292992312E+06, 2.889810144009536E+08, 1.429547315087314E+07,
2460280.500000000, A.D. 2023-Dec-02 00:00:00.0000, -4.291685632638354E+06, 2.910819694876443E+08, 1.426962650642809E+07,
2460287.500000000, A.D. 2023-Dec-09 00:00:00.0000, -1.787632401733909E+07, 2.926123145318035E+08, 1.421580193122932E+07,
2460294.500000000, A.D. 2023-Dec-16 00:00:00.0000, -3.142667412398355E+07, 2.935809110375395E+08, 1.413468146847741E+07,
2460301.500000000, A.D. 2023-Dec-23 00:00:00.0000, -4.491799596169484E+07, 2.939977808127323E+08, 1.402699301388656E+07,
2460308.500000000, A.D. 2023-Dec-30 00:00:00.0000, -5.832674416651633E+07, 2.938739785830585E+08, 1.389350377516012E+07,
2460315.500000000, A.D. 2024-Jan-06 00:00:00.0000, -7.163058927497080E+07, 2.932214682172365E+08, 1.373501422562844E+07,
2460322.500000000, A.D. 2024-Jan-13 00:00:00.0000, -8.480842655505091E+07, 2.920530017652985E+08, 1.355235215042022E+07,
2460329.500000000, A.D. 2024-Jan-20 00:00:00.0000, -9.784037253994600E+07, 2.903820051925789E+08, 1.334636695189548E+07,
2460336.500000000, A.D. 2024-Jan-27 00:00:00.0000, -1.107077526282904E+08, 2.882224720489202E+08, 1.311792446945280E+07,
2460343.500000000, A.D. 2024-Feb-03 00:00:00.0000, -1.233930814659191E+08, 2.855888645046301E+08, 1.286790228295815E+07,
2460350.500000000, A.D. 2024-Feb-10 00:00:00.0000, -1.358800370514569E+08, 2.824960216723070E+08, 1.259718545057318E+07,
2460357.500000000, A.D. 2024-Feb-17 00:00:00.0000, -1.481534295610209E+08, 2.789590752850991E+08, 1.230666266166995E+07,
2460364.500000000, A.D. 2024-Feb-24 00:00:00.0000, -1.601991658965917E+08, 2.749933726815621E+08, 1.199722278945220E+07,
2460371.500000000, A.D. 2024-Mar-02 00:00:00.0000, -1.720042108728584E+08, 2.706144068958449E+08, 1.166975182014674E+07,
2460378.500000000, A.D. 2024-Mar-09 00:00:00.0000, -1.835565457507317E+08, 2.658377535402356E+08, 1.132513012004793E+07,
2460385.500000000, A.D. 2024-Mar-16 00:00:00.0000, -1.948451244732727E+08, 2.606790143659976E+08, 1.096422999752730E+07,
2460392.500000000, A.D. 2024-Mar-23 00:00:00.0000, -2.058598283670710E+08, 2.551537682571464E+08, 1.058791363631663E+07,
2460399.500000000, A.D. 2024-Mar-30 00:00:00.0000, -2.165914221233456E+08, 2.492775292517062E+08, 1.019703157892978E+07,
2460406.500000000, A.D. 2024-Apr-06 00:00:00.0000, -2.270315112853076E+08, 2.430657078288415E+08, 9.792421436900780E+06,
2460413.500000000, A.D. 2024-Apr-13 00:00:00.0000, -2.371724980910797E+08, 2.365335758837836E+08, 9.374906547074556E+06,
2460420.500000000, A.D. 2024-Apr-20 00:00:00.0000, -2.470075369698121E+08, 2.296962376571076E+08, 8.945294857270733E+06,
2460427.500000000, A.D. 2024-Apr-27 00:00:00.0000, -2.565304914903908E+08, 2.225686056671980E+08, 8.504378112093627E+06,
2460434.500000000, A.D. 2024-May-04 00:00:00.0000, -2.657358928934491E+08, 2.151653805609753E+08, 8.052931252304971E+06,
2460441.500000000, A.D. 2024-May-11 00:00:00.0000, -2.746189001385331E+08, 2.075010344119582E+08, 7.591711978066638E+06,
2460448.500000000, A.D. 2024-May-18 00:00:00.0000, -2.831752615135792E+08, 1.995897971376387E+08, 7.121460452130675E+06,
2460455.500000000, A.D. 2024-May-25 00:00:00.0000, -2.914012778746830E+08, 1.914456457008522E+08, 6.642899123322949E+06,
2460462.500000000, A.D. 2024-Jun-01 00:00:00.0000, -2.992937675174685E+08, 1.830822957314459E+08, 6.156732644727282E+06,
2460469.500000000, A.D. 2024-Jun-08 00:00:00.0000, -3.068500324680509E+08, 1.745131952609857E+08, 5.663647848066933E+06,
2460476.500000000, A.D. 2024-Jun-15 00:00:00.0000, -3.140678258060203E+08, 1.657515208527485E+08, 5.164313769483164E+06,
2460483.500000000, A.D. 2024-Jun-22 00:00:00.0000, -3.209453210196512E+08, 1.568101770602515E+08, 4.659381903407060E+06,
2460490.500000000, A.D. 2024-Jun-29 00:00:00.0000, -3.274810854987682E+08, 1.477017971745580E+08, 4.149486719631813E+06,
2460497.500000000, A.D. 2024-Jul-06 00:00:00.0000, -3.336740554893301E+08, 1.384387425940354E+08, 3.635245989489347E+06,
2460504.500000000, A.D. 2024-Jul-13 00:00:00.0000, -3.395235105120148E+08, 1.290331034598434E+08, 3.117260965167873E+06,
2460511.500000000, A.D. 2024-Jul-20 00:00:00.0000, -3.450290491797910E+08, 1.194967015392720E+08, 2.596116680682555E+06,
2460518.500000000, A.D. 2024-Jul-27 00:00:00.0000, -3.501905670177777E+08, 1.098410942533360E+08, 2.072382349109657E+06,
2460525.500000000, A.D. 2024-Aug-03 00:00:00.0000, -3.550082359489553E+08, 1.000775793452443E+08, 1.546611794555724E+06,
2460532.500000000, A.D. 2024-Aug-10 00:00:00.0000, -3.594824852110282E+08, 9.021720006524378E+07, 1.019343898572627E+06,
2460539.500000000, A.D. 2024-Aug-17 00:00:00.0000, -3.636139835914079E+08, 8.027075078267981E+07, 4.911030542392097E+05,
2460546.500000000, A.D. 2024-Aug-24 00:00:00.0000, -3.674036228933311E+08, 7.024878290526670E+07, -3.760038061320037E+04,
2460553.500000000, A.D. 2024-Aug-31 00:00:00.0000, -3.708525024621325E+08, 6.016161096177334E+07, -5.662696507384516E+05,
2460560.500000000, A.D. 2024-Sep-07 00:00:00.0000, -3.739619143498056E+08, 5.001931890567283E+07, -1.094421218255360E+06,
2460567.500000000, A.D. 2024-Sep-14 00:00:00.0000, -3.767333289733142E+08, 3.983176757580464E+07, -1.621584354326075E+06,
2460574.500000000, A.D. 2024-Sep-21 00:00:00.0000, -3.791683832359726E+08, 2.960860367222596E+07, -2.147300490434486E+06,
2460581.500000000, A.D. 2024-Sep-28 00:00:00.0000, -3.812688715443742E+08, 1.935926697110187E+07, -2.671122550595148E+06,
2460588.500000000, A.D. 2024-Oct-05 00:00:00.0000, -3.830367359977240E+08, 9.092995740249086E+06, -3.192614602602600E+06,
2460595.500000000, A.D. 2024-Oct-12 00:00:00.0000, -3.844740560535432E+08, -1.181166700083722E+06, -3.711351552530428E+06,
2460602.500000000, A.D. 2024-Oct-19 00:00:00.0000, -3.855830393682703E+08, -1.145436457652522E+07, -4.226918744954198E+06,
2460609.500000000, A.D. 2024-Oct-26 00:00:00.0000, -3.863660138007692E+08, -2.171792225266218E+07, -4.738911532652768E+06,
2460616.500000000, A.D. 2024-Nov-02 00:00:00.0000, -3.868254202798203E+08, -3.196333698090037E+07, -5.246934852407873E+06,
2460623.500000000, A.D. 2024-Nov-09 00:00:00.0000, -3.869638063980108E+08, -4.218227181412279E+07, -5.750602814562881E+06,
2460630.500000000, A.D. 2024-Nov-16 00:00:00.0000, -3.867838206670185E+08, -5.236654869312551E+07, -6.249538309020564E+06,
2460637.500000000, A.D. 2024-Nov-23 00:00:00.0000, -3.862882073509446E+08, -6.250814177357729E+07, -6.743372636307031E+06,
2460644.500000000, A.D. 2024-Nov-30 00:00:00.0000, -3.854798016356027E+08, -7.259917104663470E+07, -7.231745186443988E+06,
2460651.500000000, A.D. 2024-Dec-07 00:00:00.0000, -3.843615246826978E+08, -8.263189584190586E+07, -7.714303169755220E+06,
2460658.500000000, A.D. 2024-Dec-14 00:00:00.0000, -3.829363792275445E+08, -9.259870699653204E+07, -8.190701236346021E+06,
2460665.500000000, A.D. 2024-Dec-21 00:00:00.0000, -3.812074480116404E+08, -1.024921189385408E+08, -8.660600873003446E+06,
2460672.500000000, A.D. 2024-Dec-28 00:00:00.0000, -3.791778930553900E+08, -1.123047646582743E+08, -9.123670001094595E+06,
2460679.500000000, A.D. 2025-Jan-04 00:00:00.0000, -3.768509531532844E+08, -1.220293911946514E+08, -9.579582819279782E+06,
2460686.500000000, A.D. 2025-Jan-11 00:00:00.0000, -3.742299413900148E+08, -1.316588539775097E+08, -1.002801958766983E+07,
2460693.500000000, A.D. 2025-Jan-18 00:00:00.0000, -3.713182435726107E+08, -1.411861109477003E+08, -1.046866634393726E+07,
2460700.500000000, A.D. 2025-Jan-25 00:00:00.0000, -3.681193173178537E+08, -1.506042169333572E+08, -1.090121461240698E+07,
2460707.500000000, A.D. 2025-Feb-01 00:00:00.0000, -3.646366915914825E+08, -1.599063183149654E+08, -1.132536112585814E+07,
2460714.500000000, A.D. 2025-Feb-08 00:00:00.0000, -3.608739666277259E+08, -1.690856479607424E+08, -1.174080756349561E+07,
$$EOE